SEEDS II (CO-66)        
1 32791U 08021J   26106.72514752  .00011304  00000+0  38407-3 0  9994
2 32791  97.7525 101.7944 0004320 133.9152 226.2445 15.30647529977884
YUBILEINY (RS30)        
1 32953U 08025A   26106.77414025  .00000008  00000+0 -14236-4 0  9990
2 32953  82.5070  33.6334 0020605  84.6292 275.7138 12.43177575812064
KKS-1 (KISEKI)          
1 33499U 09002H   26106.79146485  .00000794  00000+0  10460-3 0  9991
2 33499  98.1190  28.2704 0009017 123.3438 236.8639 14.82962846927096
SWISSCUBE               
1 35932U 09051B   26106.17986767  .00000619  00000+0  13234-3 0  9994
2 35932  98.4072  12.9838 0007892  52.0864 308.1049 14.62358739880094
BEESAT-1                
1 35933U 09051C   26106.70510473  .00000522  00000+0  11495-3 0  9991
2 35933  98.4000  13.2810 0006498  63.9237 296.2631 14.61617266880205
ITUPSAT1                
1 35935U 09051E   26106.29976074  .00000482  00000+0  10970-3 0  9992
2 35935  98.4088  12.1262 0008763  73.0527 287.1633 14.60344922879702
XIWANG-1 (HOPE-1)       
1 36122U 09072B   26106.83659394  .00000314  00000+0  93748-3 0  9995
2 36122 100.3973  61.6633 0007795  18.6396 341.5001 13.16439019784937
O/OREOS (USA 219)       
1 37224U 10062C   26106.71253698  .00001411  00000+0  13975-3 0  9997
2 37224  71.9702 219.5572 0014944 191.1737 168.9104 14.93494774107467
JUGNU                   
1 37839U 11058B   26106.60177426  .00000397  00000+0  67894-4 0  9999
2 37839  19.9622 322.5771 0018608 116.4331 265.1469 14.13757398750306
SRMSAT                  
1 37841U 11058D   26106.23675398  .00000363  00000+0  52901-4 0  9998
2 37841  19.9721  74.4374 0011613 241.6849 237.7724 14.11560608749058
STRAND-1                
1 39090U 13009E   26106.78809394  .00000180  00000+0  74764-4 0  9997
2 39090  98.3910 288.5369 0009653  59.3047 300.9090 14.37126236688249
ZACUBE-1 (TSHEPISOSAT)  
1 39417U 13066B   26106.47430911  .00002430  00000+0  19290-3 0  9996
2 39417  97.8130  68.4832 0044892  98.0747 262.5573 15.00673871671470
GOMX-1                  
1 39430U 13066Q   26106.82803810  .00000773  00000+0  12396-3 0  9990
2 39430  97.6536 311.1527 0127565 274.7470  83.9179 14.69235408660904
CUBEBUG-2 (LO-74)       
1 39440U 13066AA  26106.42583080  .00001398  00000+0  13513-3 0  9997
2 39440  97.8866  55.1835 0056662 231.2901 128.3245 14.93340613667778
FUNCUBE-1 (AO-73)       
1 39444U 13066AE  26106.65557581  .00005674  00000+0  36089-3 0  9997
2 39444  97.8238  76.8736 0038542  54.9890 305.4945 15.08603541670384
UWE-3                   
1 39446U 13066AG  26106.37736610  .00001434  00000+0  12847-3 0  9996
2 39446  97.8662  62.0811 0049674 163.7462 196.5366 14.96537672668335
UNISAT-6                
1 40012U 14033C   26106.67299772  .00001692  00000+0  18787-3 0  9993
2 40012  97.7800 260.5098 0043956 271.1218  88.4963 14.87884173637015
DUCHIFAT-1              
1 40021U 14033M   26106.85986558  .00039623  00000+0  59407-3 0  9997
2 40021  98.0553 157.9300 0003191 274.5948  85.4940 15.54834835646199
QB50P1                  
1 40025U 14033R   26106.57353655  .00005388  00000+0  27398-3 0  9991
2 40025  98.0994 113.4418 0010697  80.1464 280.0975 15.17281249643688
LILACSAT-2              
1 40908U 15049K   26106.82879477  .00011051  00000+0  20265-3 0  9992
2 40908  97.4739 141.4037 0008868 112.1942 248.0251 15.49427699586245
FOX-1A (AO-85)          
1 40967U 15058D   26106.43478642  .00001517  00000+0  14789-3 0  9993
2 40967  64.7726 110.8330 0128402  80.8252 280.7359 14.90589882104360
CAS-2T & KS-1Q          
1 41847U 16066G   26106.45665346  .00000348  00000+0  59010-4 0  9990
2 41847  98.3838 182.8873 0341367 317.0183  40.4792 14.44555786495888
RADFXSAT (FOX-1B)       
1 43017U 17073E   26106.60085503  .00004798  00000+0  21557-3 0  9995
2 43017  97.4792 335.1035 0153559 180.5300 179.5793 15.11608323456084
DIWATA-2B               
1 43678U 18084H   26106.81084220  .00001198  00000+0  10102-3 0  9994
2 43678  98.1048 300.4178 0013788  15.9131 344.2521 15.00151340407013
ES'HAIL 2               
1 43700U 18090A   26106.65948295  .00000151  00000+0  00000+0 0  9990
2 43700   0.0154 245.5706 0001136 161.3276  61.1070  1.00272614 27065
FOX-1CLIFF (AO-95)      
1 43770U 18099N   26106.43991084  .00006404  00000+0  25638-3 0  9991
2 43770  97.4438 166.9622 0008748 194.9739 165.1241 15.25376721403803
ITASAT                  
1 43786U 18099AE  26106.41418573  .00003901  00000+0  19339-3 0  9993
2 43786  97.4092 159.1767 0012352 200.8082 159.2651 15.18260159403532
JY1SAT (JO-97)          
1 43803U 18099AX  26106.13633634  .00009640  00000+0  31721-3 0  9994
2 43803  97.4187 168.8347 0007363 127.2922 232.8992 15.31697363404127
UWE-4                   
1 43880U 18111E   26106.71974515  .00017922  00000+0  41496-3 0  9996
2 43880  97.5863  32.4646 0008586 167.3462 192.8002 15.42477857401292
TIANYAN 01              
1 44881U 19093C   26106.85537198 -.00000180  00000+0 -14336-4 0  9999
2 44881  97.7562 180.5793 0012171 291.9880  68.0043 14.86418057342302
RS-44 & BREEZE-KM R/B   
1 44909U 19096E   26106.47666898  .00000002  00000+0 -29956-4 0  9997
2 44909  82.5263  20.7099 0216439 288.8111  68.9625 12.79747884294452
SALSAT                  
1 46495U 20068K   26106.57607044  .00004776  00000+0  17294-3 0  9991
2 46495  97.8862 105.9354 0010820 149.7925 210.3939 15.28882964305946
XW-3 (CAS-9)            
1 50466U 21131B   26106.82556955  .00000324  00000+0  11388-3 0  9991
2 50466  98.4950 199.5592 0002863 287.4349  72.6526 14.41297095226273
GREENCUBE (IO-117)      
1 53109U 22080E   26106.55228240 -.00000003  00000+0  00000+0 0  9995
2 53109  70.1493 319.6911 0008888 303.6326  56.3485  6.42583340 88102
UMKA 1 (RS40S)          
1 57172U 23091G   26106.82317694  .00003580  00000+0  16855-3 0  9995
2 57172  97.5106 165.7720 0012079 340.5018  19.5753 15.20129990154682
CUBESX-HSE 3 (RS42S)    
1 57178U 23091N   26106.84399759  .00007570  00000+0  26542-3 0  9992
2 57178  97.5141 171.7162 0009584 313.6413  46.4031 15.29702816155043
MONITOR-3 (RS58S)       
1 57180U 23091Q   26106.80507888  .00006006  00000+0  23171-3 0  9993
2 57180  97.5135 169.8443 0010580 321.1949  38.8529 15.26634384154929
MONITOR-4 (RS57S)       
1 57182U 23091S   26106.85350394  .00006216  00000+0  23902-3 0  9993
2 57182  97.5128 169.8600 0010547 321.5317  38.5169 15.26729695154932
MONITOR-2 (RS39S)       
1 57184U 23091U   26106.83602926  .00003119  00000+0  15504-3 0  9992
2 57184  97.5129 165.5245 0010323 333.5605  26.5100 15.18348979154641
SVYATOBOR 1 (RS60S)     
1 57187U 23091X   26106.81729481  .00005093  00000+0  20332-3 0  9997
2 57187  97.5141 170.3297 0008167 313.8237  46.2325 15.25584420154957
VIZARD-METEO (RS38S)    
1 57189U 23091Z   26106.80605972  .00009267  00000+0  28299-3 0  9993
2 57189  97.5135 175.1432 0005891 289.5310  70.5296 15.34113657155271
NANOZOND 1 (RS49S)      
1 57190U 23091AA  26106.74598946  .01369911  13477-2  12558-2 0  9991
2 57190  97.4901 190.8190 0012093 263.0435  96.9474 16.12626503156317
POLYTECH-UNIVERSE 3 (R*)
1 57191U 23091AB  26106.80534296  .00002864  00000+0  14165-3 0  9999
2 57191  97.5105 164.9995 0015088 348.9934  11.0968 15.18544439154635
UTMN 2 (RS27S)          
1 57203U 23091AP  26106.83055499  .00007222  00000+0  24689-3 0  9994
2 57203  97.5133 173.2604 0006695 299.3583  60.6988 15.30568614155158
KUZGTU 1 (RS47S)        
1 57217U 23091AV  26106.84916287  .00006775  00000+0  24684-3 0  9998
2 57217  97.5113 170.7570 0009776 317.8969  42.1518 15.28483839155002
SONATE-2                
1 59112U 24043Q   26106.35524219  .00022415  00000+0  34275-3 0  9994
2 59112  97.5459 253.2023 0007256  74.0118 286.1934 15.54378993118273
MESAT1                  
1 60209U 24125G   26106.84910655  .00029805  00000+0  40851-3 0  9998
2 60209  97.2386 323.1897 0012503  88.0925 272.1763 15.57237717100004
OOV-CUBE (TUBSAT-30)    
1 60240U 24128F   26106.63346014  .00001336  00000+0  11341-3 0  9996
2 60240  61.9934  80.1562 0051365 120.2991 240.3196 15.02468226 96862
COLIBRI-S (RS67S)       
1 61746U 24199M   26106.84805866  .00012464  00000+0  26382-3 0  9999
2 61746  97.3089 340.2321 0010413 135.6895 224.5189 15.45202952127931
HORS 3 (RS81S)          
1 61753U 24199U   26106.80744545  .00019425  00000+0  33579-3 0  9999
2 61753  97.3068 341.5907 0008692 136.7594 223.4342 15.50966543128034
HORS 4 (RS82S)          
1 61754U 24199V   26106.79826029  .00026210  00000+0  39935-3 0  9998
2 61754  97.3030 342.4449 0008131 132.9952 227.1985 15.54435202128096
HORIZON (RS59S)         
1 61757U 24199Y   26106.75582023  .00189287  00000+0  79395-3 0  9998
2 61757  97.2946 347.6267 0006715 125.7126 234.4770 15.85035922128427
ARCTICSAT 1 (RS74S)     
1 61762U 24199AD  26106.80173927  .00098615  00000+0  65085-3 0  9994
2 61762  97.2989 346.8201 0007116 117.6688 242.5300 15.75284857128373
SIT-2086                
1 61764U 24199AF  26106.84458094  .00013686  00000+0  24916-3 0  9994
2 61764  97.3057 342.2940 0008018 125.8296 234.3702 15.49578231124925
HYPERVIEW 1G (RS66S)    
1 61772U 24199AP  26106.83768131  .00049604  00000+0  53007-3 0  9990
2 61772  97.3005 344.0487 0009312 132.3480 227.8570 15.63712431125052
ALTAIR (RS65S)          
1 61779U 24199AW  26106.89126439  .00006100  00000+0  17654-3 0  9994
2 61779  97.3118 336.6712 0013760 159.2733 200.9072 15.35873103127709
ASRTU-1 (AO-123)        
1 61781U 24199AY  26106.89586420  .00005056  00000+0  15191-3 0  9990
2 61781  97.3090 336.1309 0014618 162.1116 198.0645 15.34768629124524
TUSUR GO (RS78S)        
1 61782U 24199AZ  26106.85428065  .00240942  22804-4  86675-3 0  9998
2 61782  97.2899 346.8146 0007037 138.7961 221.3844 15.88667045125242
SAMSAT-IONOSPHERE (RS7*)
1 61784U 24199BB  26106.79668192  .00025163  00000+0  40860-3 0  9991
2 61784  97.3051 341.4489 0011102 140.3995 219.8071 15.52645400128025
